STARLINK-2525_new
1 18482C 21040BG  21326.15746485 -.00019341  00000-0 -12961-2 0  3262
2 18482  53.0561  43.0301 0001244  72.0445 147.2231 15.06411064    11
STARLINK-2525_old
1 28482C 21040BG  21325.13246069  .00006095  00000-0  40838-3 0  3256
2 28482  53.0564  47.6311 0001373  72.9167 344.6459 15.06390355    12
